KUIPER-00053            
1 64513U 25134P   26019.54689421  .00002497  00000+0  35620-3 0  9991
2 64513  51.9013  80.4011 0000483  11.9808 348.1165 14.79963309 32932
KUIPER-00054            
1 64514U 25134Q   26019.55215934  .00004574  00000+0  62856-3 0  9996
2 64514  51.8982  75.3579 0004209 151.9676 208.1513 14.79938725 33002
KUIPER-00055            
1 64515U 25134R   26019.38410945  .00011822  00000+0  57369-3 0  9994
2 64515  51.8926  51.7537 0002129  11.1303 348.9723 15.18884382 33320
KUIPER-00056            
1 64516U 25134S   26019.54512785  .00004886  00000+0  66924-3 0  9997
2 64516  51.9034  81.4472 0001347 155.1088 204.9940 14.79945021 32921
KUIPER-00057            
1 64517U 25134T   26019.60463113  .00004007  00000+0  55397-3 0  9992
2 64517  51.8999  88.6633 0008829 112.6799 247.5098 14.79958716 32829
KUIPER-00058            
1 64518U 25134U   26019.54409942  .00004821  00000+0  66070-3 0  9990
2 64518  51.9008  82.8518 0003404 163.7883 196.3189 14.79954233 32906
KUIPER-00059            
1 64519U 25134V   26019.41449011  .00005192  00000+0  70902-3 0  9999
2 64519  51.9009  78.4815 0001667 351.7966   8.2969 14.79962445 32955
KUIPER-00060            
1 64520U 25134W   26019.54778668 -.00000347  00000+0 -16495-4 0  9995
2 64520  51.9030  78.9361 0001315 212.7284 147.3597 14.79939076 32946
